COMMENT,ORIGINATOR,NORAD_CAT_ID,OBJECT_NAME,OBJECT_TYPE,CLASSIFICATION_TYPE,INTLDES,EPOCH,EPOCH_MICROSECONDS,MEAN_MOTION,ECCENTRICITY,INCLINATION,RA_OF_ASC_NODE,ARG_OF_PERICENTER,MEAN_ANOMALY,EPHEMERIS_TYPE,ELEMENT_SET_NO,REV_AT_EPOCH,BSTAR,MEAN_MOTION_DOT,MEAN_MOTION_DDOT,FILE,TLE_LINE0,TLE_LINE1,TLE_LINE2,OBJECT_ID,OBJECT_NUMBER,SEMIMAJOR_AXIS,PERIOD,APOGEE,PERIGEE
"GENERATED VIA SPACETRACK.ORG API","JSPOC","39239","YAOGAN 17A","PAYLOAD","U","13046A","2016-01-12 01:13:03","417600","13.45146947","0.0085063","63.4106","165.4859","3.3658","356.7931","0","999","11597","0","-9e-07","0","1979230","0 YAOGAN 17A","1 39239U 13046A   16012.05073400 -.00000090  00000-0  00000+0 0  9998","2 39239  63.4106 165.4859 0085063   3.3658 356.7931 13.45146947115974","2013-046A","39239","7468.304","107.051","1153.697","1026.641"
"GENERATED VIA SPACETRACK.ORG API","JSPOC","39240","YAOGAN 17B","PAYLOAD","U","13046B","2016-01-12 01:13:21","864864","13.45145579","0.0084988","63.411","165.5289","3.306","356.8514","0","999","11597","0","-9e-07","0","1979230","0 YAOGAN 17B","1 39240U 13046B   16012.05094751 -.00000090  00000-0  00000+0 0  9992","2 39240  63.4110 165.5289 0084988   3.3060 356.8514 13.45145579115979","2013-046B","39240","7468.309","107.051","1153.646","1026.702"
"GENERATED VIA SPACETRACK.ORG API","JSPOC","28510","COSMOS 2412 (GLONASS)","PAYLOAD","U","04053C","2016-01-12 01:13:55","719840","2.13103196","0.0004495","63.1438","195.7735","227.7326","334.1261","0","999","8595","0","9e-07","0","1979204","0 COSMOS 2412 (GLONASS)","1 28510U 04053C   16012.05133935  .00000090  00000-0  00000+0 0  9995","2 28510  63.1438 195.7735 0004495 227.7326 334.1261  2.13103196 85954","2004-053C","28510","25507.928","675.728","19141.259","19118.328"
"GENERATED VIA SPACETRACK.ORG API","JSPOC","39202","SJ-11-05","PAYLOAD","U","13035A","2016-01-12 01:15:04","681728","14.60205514","0.0010268","98.2226","165.9314","259.3871","100.6166","0","999","13284","5.253e-05","2.06e-06","0","1979325","0 SJ-11-05","1 39202U 13035A   16012.05213752  .00000206  00000-0  52530-4 0  9990","2 39202  98.2226 165.9314 0010268 259.3871 100.6166 14.60205514132844","2013-035A","39202","7070.647","98.616","699.772","685.252"
"GENERATED VIA SPACETRACK.ORG API","JSPOC","2971","DELTA 1 R/B(2) *","ROCKET BODY","U","67094C","2016-01-12 01:15:06","392448","3.04280581","0.6671922","28.3829","29.5772","77.2089","345.0597","0","999","44155","0.0019191","3.245e-05","0","1979254","0 DELTA 1 R/B(2) *","1 02971U 67094C   16012.05215732  .00003245  00000-0  19191-2 0  9997","2 02971  28.3829  29.5772 6671922  77.2089 345.0597  3.04280581441554","1967-094C","2971","20116.496","473.247","27159.931","316.792"
"GENERATED VIA SPACETRACK.ORG API","JSPOC","39059","COSMOS 2484","PAYLOAD","U","13001C","2016-01-12 01:15:14","150304","12.42872622","0.002579","82.5025","70.2167","65.5185","294.8584","0","999","13556","0","1e-07","0","1979294","0 COSMOS 2484","1 39059U 13001C   16012.05224711  .00000010  00000-0  00000+0 0  9993","2 39059  82.5025  70.2167 0025790  65.5185 294.8584 12.42872622135562","2013-001C","39059","7872.586","115.860","1514.754","1474.147"
"GENERATED VIA SPACETRACK.ORG API","JSPOC","1506","SECOR 5 (EGRS 5)","PAYLOAD","U","65063A","2016-01-12 01:15:21","133152","11.78616778","0.079224","69.2306","247.8142","307.2794","114.8034","0","999","16975","-1.809e-07","-3.4e-07","0","1979331","0 SECOR 5 (EGRS 5)","1 01506U 65063A   16012.05232793 -.00000034  00000-0 -18090-6 0  9996","2 01506  69.2306 247.8142 0792240 307.2794 114.8034 11.78616778169755","1965-063A","1506","8156.179","122.177","2424.209","1131.879"
"GENERATED VIA SPACETRACK.ORG API","JSPOC","28380","COSMOS 2407","PAYLOAD","U","04028A","2016-01-12 01:15:25","513632","13.76017706","0.0040797","82.9579","14.8099","102.313","258.2598","0","999","57618","8.7821e-06","2.4e-07","0","1979340","0 COSMOS 2407","1 28380U 04028A   16012.05237863  .00000024  00000-0  87821-5 0  9996","2 28380  82.9579  14.8099 0040797 102.3130 258.2598 13.76017706576185","2004-028A","28380","7356.182","104.649","1008.058","948.036"
"GENERATED VIA SPACETRACK.ORG API","JSPOC","38355","CZ-4C R/B","ROCKET BODY","U","12029B","2016-01-12 01:16:50","318688","13.46060125","0.016257","100.2277","182.1033","51.0786","310.4711","0","999","17795","-6.3061e-05","-8.7e-07","0","1979236","0 CZ-4C R/B","1 38355U 12029B   16012.05336017 -.00000087  00000-0 -63061-4 0  9990","2 38355 100.2277 182.1033 0162570  51.0786 310.4711 13.46060125177955","2012-029B","38355","7464.926","106.978","1208.148","965.434"
"GENERATED VIA SPACETRACK.ORG API","JSPOC","37868","COSMOS 2477 (GLONASS)","PAYLOAD","U","11064B","2016-01-12 01:17:13","141248","2.13101951","0.0012391","64.4991","201.9202","246.5618","341.6659","0","999","3259","0","9.4e-07","0","1979307","0 COSMOS 2477 (GLONASS)","1 37868U 11064B   16012.05362432  .00000094  00000-0  00000+0 0  9991","2 37868  64.4991 201.9202 0012391 246.5618 341.6659  2.13101951 32597","2011-064B","37868","25508.028","675.732","19161.500","19098.286"
"GENERATED VIA SPACETRACK.ORG API","JSPOC","14241","SL-8 R/B","ROCKET BODY","U","83079B","2016-01-12 01:19:21","105696","14.36026397","0.0018043","74.0603","122.4463","324.8685","35.1277","0","999","69785","4.5466e-05","1.06e-06","0","1979213","0 SL-8 R/B","1 14241U 83079B   16012.05510539  .00000106  00000-0  45466-4 0  9993","2 14241  74.0603 122.4463 0018043 324.8685  35.1277 14.36026397697859","1983-079B","14241","7149.794","100.276","784.559","758.759"
"GENERATED VIA SPACETRACK.ORG API","JSPOC","24730","GONETS D1 6","PAYLOAD","U","97006F","2016-01-12 01:19:38","793504","12.62402894","0.0001231","82.6063","158.6866","339.9723","20.1324","0","999","87127","-0.0001627","-1.9e-07","0","1979209","0 GONETS D1 6","1 24730U 97006F   16012.05531011 -.00000019  00000-0 -16270-3 0  9995","2 24730  82.6063 158.6866 0001231 339.9723  20.1324 12.62402894871271","1997-006F","24730","7791.179","114.068","1414.003","1412.084"
"GENERATED VIA SPACETRACK.ORG API","JSPOC","13295","COSMOS 1382","PAYLOAD","U","82064A","2016-01-12 01:19:42","680640","2.00674627","0.5516043","67.8273","113.0016","83.1761","307.2467","0","999","20414","0","-6e-06","0","1979250","0 COSMOS 1382","1 13295U 82064A   16012.05535510 -.00000600  00000-0  00000+0 0  9990","2 13295  67.8273 113.0016 5516043  83.1761 307.2467  2.00674627204141","1982-064A","13295","26550.550","717.579","34817.813","5527.017"
"GENERATED VIA SPACETRACK.ORG API","JSPOC","37166","ZHEDA PIXING 1B","PAYLOAD","U","10047B","2016-01-12 01:21:43","465248","14.80226694","0.0024568","97.7397","50.6325","139.741","220.5652","0","999","28630","7.0027e-05","4.84e-06","0","1979328","0 ZHEDA PIXING 1B","1 37166U 10047B   16012.05675307  .00000484  00000-0  70027-4 0  9994","2 37166  97.7397  50.6325 0024568 139.7410 220.5652 14.80226694286301","2010-047B","37166","7006.745","97.282","645.824","611.396"
"GENERATED VIA SPACETRACK.ORG API","JSPOC","5556","THOR BURNER 2 R/B","ROCKET BODY","U","71087B","2016-01-12 01:21:58","188672","14.22857209","0.0061942","99.1323","171.9961","272.3419","87.0666","0","999","29294","3.5766e-05","3.4e-07","0","1979241","0 THOR BURNER 2 R/B","1 05556U 71087B   16012.05692348  .00000034  00000-0  35766-4 0  9999","2 05556  99.1323 171.9961 0061942 272.3419  87.0666 14.22857209292943","1971-087B","5556","7193.843","101.204","860.268","771.148"
"GENERATED VIA SPACETRACK.ORG API","JSPOC","40062","GONETS M 09 (M19)","PAYLOAD","U","14036B","2016-01-12 01:22:04","807776","12.42866695","0.0022296","82.5099","153.3967","180.37","179.737","0","999","6925","0","1e-07","0","1979309","0 GONETS M 09 (M19)","1 40062U 14036B   16012.05700009  .00000010  00000-0  00000+0 0  9997","2 40062  82.5099 153.3967 0022296 180.3700 179.7370 12.42866695 69256","2014-036B","40062","7872.611","115.861","1512.029","1476.923"
"GENERATED VIA SPACETRACK.ORG API","JSPOC","28413","SJ-6A","PAYLOAD","U","04035A","2016-01-12 01:23:28","11840","14.94019264","0.001614","97.8248","21.1809","319.408","40.5936","0","999","61731","9.4725e-05","9.54e-06","0","1979293","0 SJ-6A","1 28413U 04035A   16012.05796310  .00000954  00000-0  94725-4 0  9990","2 28413  97.8248  21.1809 0016140 319.4080  40.5936 14.94019264617311","2004-035A","28413","6963.555","96.384","596.659","574.181"
"GENERATED VIA SPACETRACK.ORG API","JSPOC","39235","ARIANE 5 R/B","ROCKET BODY","U","13044C","2016-01-12 01:23:35","635776","2.35081637","0.7236185","3.7762","101.2089","191.7695","130.9119","0","999","2002","0.0019492","0.00012318","0","1979855","0 ARIANE 5 R/B","1 39235U 13044C   16012.05805134 +.00012318 +00000-0 +19492-2 0  9992","2 39235 003.7762 101.2089 7236185 191.7695 130.9119 02.35081637020023","2013-044C","39235","23892.194","612.553","34802.893","225.225"
"GENERATED VIA SPACETRACK.ORG API","JSPOC","40017","TABLETSAT AURORA","PAYLOAD","U","14033H","2016-01-12 01:24:20","192256","14.91989626","0.0022617","97.9535","281.9612","252.5991","107.275","0","999","8510","0.00015539","1.522e-05","0","1979300","0 TABLETSAT AURORA","1 40017U 14033H   16012.05856704  .00001522  00000-0  15539-3 0  9994","2 40017  97.9535 281.9612 0022617 252.5991 107.2750 14.91989626 85103","2014-033H","40017","6969.869","96.515","607.498","575.970"
"GENERATED VIA SPACETRACK.ORG API","JSPOC","14191","SL-6 R/B(2)","ROCKET BODY","U","83070D","2016-01-12 01:26:14","718912","2.03377067","0.6791609","67.2555","162.8328","21.1491","282.115","0","999","16212","0","6.1e-06","0","1979855","0 SL-6 R/B(2)","1 14191U 83070D   16012.05989258 +.00000610 +00000-0 +00000-0 0  9997","2 14191 067.2555 162.8328 6791609 021.1491 282.1150 02.03377067162120","1983-070D","14191","26314.827","708.044","37808.693","2064.690"
